$$SOE
2459580.500000000, A.D. 2022-Jan-01 00:00:00.0000, 2.113688050891132E+08, 9.281575048433623E+07, 7.086260010145378E+07,
2459587.500000000, A.D. 2022-Jan-08 00:00:00.0000, 2.032593971105698E+08, 1.053368763120042E+08, 7.286920112062702E+07,
2459594.500000000, A.D. 2022-Jan-15 00:00:00.0000, 1.944388096538855E+08, 1.174892300987684E+08, 7.462077719771384E+07,
2459601.500000000, A.D. 2022-Jan-22 00:00:00.0000, 1.849282274438494E+08, 1.292244483128835E+08, 7.610748661547591E+07,
2459608.500000000, A.D. 2022-Jan-29 00:00:00.0000, 1.747529090813896E+08, 1.404949598987416E+08, 7.732055993627256E+07,
2459615.500000000, A.D. 2022-Feb-05 00:00:00.0000, 1.639421581669477E+08, 1.512544161561077E+08, 7.825242115014821E+07,
2459622.500000000, A.D. 2022-Feb-12 00:00:00.0000, 1.525292380740970E+08, 1.614581287057481E+08, 7.889679916582784E+07,
2459629.500000000, A.D. 2022-Feb-19 00:00:00.0000, 1.405512267441460E+08, 1.710635088032390E+08, 7.924882680141550E+07,
2459636.500000000, A.D. 2022-Feb-26 00:00:00.0000, 1.280488096678175E+08, 1.800304974648362E+08, 7.930512434269154E+07,
2459643.500000000, A.D. 2022-Mar-05 00:00:00.0000, 1.150660126494545E+08, 1.883219756275765E+08, 7.906386491495344E+07,
2459650.500000000, A.D. 2022-Mar-12 00:00:00.0000, 1.016498780393881E+08, 1.959041441917670E+08, 7.852481939351934E+07,
2459657.500000000, A.D. 2022-Mar-19 00:00:00.0000, 8.785008995982926E+07, 2.027468644145231E+08, 7.768937916440338E+07,
2459664.500000000, A.D. 2022-Mar-26 00:00:00.0000, 7.371855583856814E+07, 2.088239500626944E+08, 7.656055571325520E+07,
2459671.500000000, A.D. 2022-Apr-02 00:00:00.0000, 5.930895318200243E+07, 2.141134040667521E+08, 7.514295674299729E+07,
2459678.500000000, A.D. 2022-Apr-09 00:00:00.0000, 4.467625193084174E+07, 2.185975942031274E+08, 7.344273926351826E+07,
2459685.500000000, A.D. 2022-Apr-16 00:00:00.0000, 2.987622359828450E+07, 2.222633649600781E+08, 7.146754088516553E+07,
2459692.500000000, A.D. 2022-Apr-23 00:00:00.0000, 1.496494707197552E+07, 2.251020852856481E+08, 6.922639141470747E+07,
2459699.500000000, A.D. 2022-Apr-30 00:00:00.0000, -1.679828396585806E+03, 2.271096306664865E+08, 6.672960719277401E+07,
2459706.500000000, A.D. 2022-May-07 00:00:00.0000, -1.496840971747253E+07, 2.282863002709624E+08, 6.398867064438544E+07,
2459713.500000000, A.D. 2022-May-14 00:00:00.0000, -2.988108531633539E+07, 2.286366767686379E+08, 6.101609842578980E+07,
2459720.500000000, A.D. 2022-May-21 00:00:00.0000, -4.468704358194636E+07, 2.281694356299308E+08, 5.782530181032655E+07,
2459727.500000000, A.D. 2022-May-28 00:00:00.0000, -5.933547851828438E+07, 2.268971101239402E+08, 5.443044267319241E+07,
2459734.500000000, A.D. 2022-Jun-04 00:00:00.0000, -7.377775786271648E+07, 2.248358196554207E+08, 5.084628829622447E+07,
2459741.500000000, A.D. 2022-Jun-11 00:00:00.0000, -8.796769071098995E+07, 2.220049697804737E+08, 4.708806800602230E+07,
2459748.500000000, A.D. 2022-Jun-18 00:00:00.0000, -1.018617449183901E+08, 2.184269322684133E+08, 4.317133432971522E+07,
2459755.500000000, A.D. 2022-Jun-25 00:00:00.0000, -1.154192146472314E+08, 2.141267132272983E+08, 3.911183094614957E+07,
2459762.500000000, A.D. 2022-Jul-02 00:00:00.0000, -1.286023396490616E+08, 2.091316167112516E+08, 3.492536925863087E+07,
2459769.500000000, A.D. 2022-Jul-09 00:00:00.0000, -1.413763787016904E+08, 2.034709107038814E+08, 3.062771496252619E+07,
2459776.500000000, A.D. 2022-Jul-16 00:00:00.0000, -1.537096409080174E+08, 1.971755023789504E+08, 2.623448565991193E+07,
2459783.500000000, A.D. 2022-Jul-23 00:00:00.0000, -1.655734813049183E+08, 1.902776275751528E+08, 2.176106028271964E+07,
2459790.500000000, A.D. 2022-Jul-30 00:00:00.0000, -1.769422652869176E+08, 1.828105550118629E+08, 1.722250022930345E+07,
2459797.500000000, A.D. 2022-Aug-06 00:00:00.0000, -1.877933029604260E+08, 1.748083087746460E+08, 1.263348180906745E+07,
2459804.500000000, A.D. 2022-Aug-13 00:00:00.0000, -1.981067589849212E+08, 1.663054138150013E+08, 8.008239918314032E+06,
2459811.500000000, A.D. 2022-Aug-20 00:00:00.0000, -2.078655440352254E+08, 1.573366651888836E+08, 3.360522469730593E+06,
2459818.500000000, A.D. 2022-Aug-27 00:00:00.0000, -2.170551920774882E+08, 1.479369208177050E+08, -1.296445224327967E+06,
2459825.500000000, A.D. 2022-Sep-03 00:00:00.0000, -2.256637271210873E+08, 1.381409175702753E+08, -5.949986982717685E+06,
2459832.500000000, A.D. 2022-Sep-10 00:00:00.0000, -2.336815228639461E+08, 1.279831101255670E+08, -1.058799410373059E+07,
2459839.500000000, A.D. 2022-Sep-17 00:00:00.0000, -2.411011582672350E+08, 1.174975316793558E+08, -1.519893645335459E+07,
2459846.500000000, A.D. 2022-Sep-24 00:00:00.0000, -2.479172716115912E+08, 1.067176752180746E+08, -1.977186720920595E+07,
2459853.500000000, A.D. 2022-Oct-01 00:00:00.0000, -2.541264149868858E+08, 9.567639389118180E+07, -2.429642214779506E+07,
2459860.500000000, A.D. 2022-Oct-08 00:00:00.0000, -2.597269106408800E+08, 8.440581942144582E+07, -2.876281428393788E+07,
2459867.500000000, A.D. 2022-Oct-15 00:00:00.0000, -2.647187116306425E+08, 7.293729812855063E+07, -3.316182444900394E+07,
2459874.500000000, A.D. 2022-Oct-22 00:00:00.0000, -2.691032701543140E+08, 6.130134128264055E+07, -3.748478846878982E+07,
2459881.500000000, A.D. 2022-Oct-29 00:00:00.0000, -2.728834119478805E+08, 4.952758564554821E+07, -4.172358204166412E+07,
2459888.500000000, A.D. 2022-Nov-05 00:00:00.0000, -2.760632152365725E+08, 3.764476544293904E+07, -4.587060386237583E+07,
2459895.500000000, A.D. 2022-Nov-12 00:00:00.0000, -2.786478965733082E+08, 2.568069558808100E+07, -4.991875720610620E+07,
2459902.500000000, A.D. 2022-Nov-19 00:00:00.0000, -2.806437044987739E+08, 1.366226384718909E+07, -5.386143042366978E+07,
2459909.500000000, A.D. 2022-Nov-26 00:00:00.0000, -2.820578208339251E+08, 1.615430309283108E+06, -5.769247678462026E+07,
2459916.500000000, A.D. 2022-Dec-03 00:00:00.0000, -2.828982693861654E+08, -1.043476698187564E+07, -6.140619400551361E+07,
2459923.500000000, A.D. 2022-Dec-10 00:00:00.0000, -2.831738318769045E+08, -2.246420124042907E+07, -6.499730373540927E+07,
2459930.500000000, A.D. 2022-Dec-17 00:00:00.0000, -2.828939708488538E+08, -3.444964194045950E+07, -6.846093122728673E+07,
2459937.500000000, A.D. 2022-Dec-24 00:00:00.0000, -2.820687591741676E+08, -4.636873649122116E+07, -7.179258539497118E+07,
2459944.500000000, A.D. 2022-Dec-31 00:00:00.0000, -2.807088154983705E+08, -5.819998920017751E+07, -7.498813942803693E+07,
2459951.500000000, A.D. 2023-Jan-07 00:00:00.0000, -2.788252451640136E+08, -6.992273719486991E+07, -7.804381201412389E+07,
2459958.500000000, A.D. 2023-Jan-14 00:00:00.0000, -2.764295882325204E+08, -8.151712336040324E+07, -8.095614903741159E+07,
2459965.500000000, A.D. 2023-Jan-21 00:00:00.0000, -2.735337748982933E+08, -9.296406994773631E+07, -8.372200602281484E+07,
2459972.500000000, A.D. 2023-Jan-28 00:00:00.0000, -2.701500842824117E+08, -1.042452534621996E+08, -8.633853173106712E+07,
2459979.500000000, A.D. 2023-Feb-04 00:00:00.0000, -2.662911064718562E+08, -1.153430781531747E+08, -8.880315267107359E+07,
2459986.500000000, A.D. 2023-Feb-11 00:00:00.0000, -2.619697092601500E+08, -1.262406485957802E+08, -9.111355839564294E+07,
2459993.500000000, A.D. 2023-Feb-18 00:00:00.0000, -2.571990093276187E+08, -1.369217424453656E+08, -9.326768764825538E+07,
2460000.500000000, A.D. 2023-Feb-25 00:00:00.0000, -2.519923472947968E+08, -1.473707837451995E+08, -9.526371540044191E+07,
2460007.500000000, A.D. 2023-Mar-04 00:00:00.0000, -2.463632662618112E+08, -1.575728169483296E+08, -9.710004078340456E+07,
2460014.500000000, A.D. 2023-Mar-11 00:00:00.0000, -2.403254935355147E+08, -1.675134818008537E+08, -9.877527590489256E+07,
2460021.500000000, A.D. 2023-Mar-18 00:00:00.0000, -2.338929252438189E+08, -1.771789892586284E+08, -1.002882355433132E+08,
2460028.500000000, A.D. 2023-Mar-25 00:00:00.0000, -2.270796133978934E+08, -1.865560985860477E+08, -1.016379277226418E+08,
2460035.500000000, A.D. 2023-Apr-01 00:00:00.0000, -2.198997547591935E+08, -1.956320953265157E+08, -1.028235451543854E+08,
2460042.500000000, A.D. 2023-Apr-08 00:00:00.0000, -2.123676819243017E+08, -2.043947689866116E+08, -1.038444573679972E+08,
2460049.500000000, A.D. 2023-Apr-15 00:00:00.0000, -2.044978587766106E+08, -2.128323915947560E+08, -1.047002033830015E+08,
2460056.500000000, A.D. 2023-Apr-22 00:00:00.0000, -1.963048783240295E+08, -2.209337002336963E+08, -1.053904853177327E+08,
2460063.500000000, A.D. 2023-Apr-29 00:00:00.0000, -1.878034600339347E+08, -2.286878813336619E+08, -1.059151629831633E+08,
2460070.500000000, A.D. 2023-May-06 00:00:00.0000, -1.790084482848086E+08, -2.360845549750289E+08, -1.062742491347466E+08,
2460077.500000000, A.D. 2023-May-13 00:00:00.0000, -1.699348127796484E+08, -2.431137601173932E+08, -1.064679053432236E+08,
2460084.500000000, A.D. 2023-May-20 00:00:00.0000, -1.605976505626433E+08, -2.497659412673662E+08, -1.064964385229983E+08,
2460091.500000000, A.D. 2023-May-27 00:00:00.0000, -1.510121893281830E+08, -2.560319366378030E+08, -1.063602981181471E+08,
2460098.500000000, A.D. 2023-Jun-03 00:00:00.0000, -1.411937918563114E+08, -2.619029677993856E+08, -1.060600739349030E+08,
2460105.500000000, A.D. 2023-Jun-10 00:00:00.0000, -1.311579614529043E+08, -2.673706308672391E+08, -1.055964946146621E+08,
2460112.500000000, A.D. 2023-Jun-17 00:00:00.0000, -1.209203482166563E+08, -2.724268893122555E+08, -1.049704267542826E+08,
2460119.500000000, A.D. 2023-Jun-24 00:00:00.0000, -1.104967557317658E+08, -2.770640683713857E+08, -1.041828746932166E+08,
2460126.500000000, A.D. 2023-Jul-01 00:00:00.0000, -9.990314785785711E+07, -2.812748502580686E+08, -1.032349809160793E+08,
2460133.500000000, A.D. 2023-Jul-08 00:00:00.0000, -8.915565721631257E+07, -2.850522693786544E+08, -1.021280268388510E+08,
2460140.500000000, A.D. 2023-Jul-15 00:00:00.0000, -7.827059656876485E+07, -2.883897104152856E+08, -1.008634340803281E+08,
2460147.500000000, A.D. 2023-Jul-22 00:00:00.0000, -6.726446948027319E+07, -2.912809103525473E+08, -9.944276662091599E+07,
$$EOE